{
"type": "FeatureCollection",
"name": "Boundary",
"crs": { "type": "name", "properties": { "name": "urn:ogc:def:crs:OGC:1.3:CRS84" } },
"features": [
{ "type": "Feature", "properties": { "OBJECTID": 1, "Id": 0, "Shape_Length": 0.13138693716548797, "Shape_Area": 0.00058093024364304564 }, "geometry": { "type": "MultiPolygon", "coordinates": [ [ [ [ -106.351350181999976, 35.557097578000025 ], [ -106.355486679999956, 35.561694200000034 ], [ -106.355128283999989, 35.559704501000056 ], [ -106.357530991999965, 35.560869016000026 ], [ -106.356749997999941, 35.562636733000033 ], [ -106.356554997999979, 35.565132733000041 ], [ -106.357933007999975, 35.566945414000031 ], [ -106.358457433999945, 35.567956054000035 ], [ -106.358630998999956, 35.568864734000044 ], [ -106.358242471999972, 35.569384312000068 ], [ -106.357255854999948, 35.570268016000057 ], [ -106.355672297999945, 35.570211561000065 ], [ -106.349834769999973, 35.570217950000028 ], [ -106.349097076999954, 35.571582670000055 ], [ -106.348344245999954, 35.573033558000077 ], [ -106.348564470999975, 35.573357073000068 ], [ -106.348819323999976, 35.573972811000033 ], [ -106.348836835999975, 35.57432287000006 ], [ -106.348656376999941, 35.575404761000073 ], [ -106.346719698999948, 35.576559905000067 ], [ -106.345766582999943, 35.57723311500007 ], [ -106.344923976999951, 35.578785620000076 ], [ -106.343302092999977, 35.578234846000043 ], [ -106.34235320099998, 35.579691995000076 ], [ -106.34199891999998, 35.580420311000069 ], [ -106.341285586999959, 35.588295960000039 ], [ -106.335773884999981, 35.587599760000046 ], [ -106.330629617999989, 35.586853045000055 ], [ -106.332909403999963, 35.578711680000026 ], [ -106.33258015399997, 35.577906994000045 ], [ -106.33198502, 35.576549475000036 ], [ -106.333065141999953, 35.576548735000074 ], [ -106.333864559999938, 35.576407972000027 ], [ -106.33414438799997, 35.575847514000031 ], [ -106.333345201999975, 35.575524898000026 ], [ -106.333637659999965, 35.575142189000076 ], [ -106.333878180999989, 35.574529657000028 ], [ -106.334479259999966, 35.574027554000054 ], [ -106.334704067999951, 35.573742998000057 ], [ -106.332125843999961, 35.573201690000076 ], [ -106.332879470999956, 35.571282256000075 ], [ -106.334936144999972, 35.571654116000047 ], [ -106.335016805999942, 35.570770017000029 ], [ -106.335504316999959, 35.570857997000076 ], [ -106.335505048999948, 35.570527923000043 ], [ -106.336213431999965, 35.570609034000029 ], [ -106.336229393999986, 35.570375235000029 ], [ -106.335578200999976, 35.57022445900003 ], [ -106.335027473999958, 35.570224745000075 ], [ -106.331526351999969, 35.570227402000057 ], [ -106.33537251599995, 35.550126861000024 ], [ -106.351350181999976, 35.557097578000025 ] ] ] ] } }
]
}
