{
"type": "FeatureCollection",
"name": "Parcels",
"crs": { "type": "name", "properties": { "name": "urn:ogc:def:crs:OGC:1.3:CRS84" } },
"features": [
{ "type": "Feature", "properties": { "OBJECTID_12": 1, "ADDRESS": "46 CALLE DE CABALLOS", "SIGNER": "MONTOYA, MISSY", "OWNER": "MONTOYA, ELISEO JR", "PARCEL": "PB-010", "Shape_Length": 0.0040539486174626677, "Shape_Area": 4.8418690490351193e-07 }, "geometry": { "type": "MultiPolygon", "coordinates": [ [ [ [ -106.332371161999959, 35.583234506000053 ], [ -106.332412219, 35.583059134000052 ], [ -106.33322237699997, 35.583131933000061 ], [ -106.333246204999966, 35.582865237000078 ], [ -106.333313058999977, 35.582866859000035 ], [ -106.333339255999988, 35.582775028000071 ], [ -106.33389862599995, 35.582776634000027 ], [ -106.33388240499994, 35.583191237000051 ], [ -106.333882207999977, 35.583332979000033 ], [ -106.332371161999959, 35.583234506000053 ] ] ] ] } },
{ "type": "Feature", "properties": { "OBJECTID_12": 2, "ADDRESS": "13 CALLE LA MORADA", "SIGNER": "BACA, STEPHEN", "OWNER": "BACA, STEPHEN AND DELILAH", "PARCEL": "PB-006", "Shape_Length": 0.0028800267545307685, "Shape_Area": 5.0031407424027659e-07 }, "geometry": { "type": "MultiPolygon", "coordinates": [ [ [ [ -106.333430902999964, 35.583904080000025 ], [ -106.333399967999981, 35.583900251000046 ], [ -106.333390901999962, 35.583899128000041 ], [ -106.333398150999983, 35.583881585000029 ], [ -106.33304190299998, 35.583838162000063 ], [ -106.332965885999954, 35.583828896000057 ], [ -106.332972618999975, 35.583790277000048 ], [ -106.332975106, 35.583776022000052 ], [ -106.333029746999955, 35.583462614000041 ], [ -106.333034153999961, 35.583437339000056 ], [ -106.333048298999984, 35.583356199000036 ], [ -106.333061667999971, 35.583279509000079 ], [ -106.333882207999977, 35.583332979000033 ], [ -106.333884738999984, 35.583519956000032 ], [ -106.333825954999952, 35.583877082000072 ], [ -106.333814515999961, 35.583946581000077 ], [ -106.333810888999949, 35.583946179000066 ], [ -106.333732343999941, 35.583937477000063 ], [ -106.333430902999964, 35.583904080000025 ] ] ] ] } },
{ "type": "Feature", "properties": { "OBJECTID_12": 3, "ADDRESS": "70 CARRO DE CABALLOS", "SIGNER": "LUCERO, JESSE ", "OWNER": "LUCERO, JESSE A AND LANNA R", "PARCEL": "PB-033", "Shape_Length": 0.0025080606860175565, "Shape_Area": 3.9978054382768662e-07 }, "geometry": { "type": "MultiPolygon", "coordinates": [ [ [ [ -106.333756892999986, 35.58596103900004 ], [ -106.333102191999956, 35.585978329000056 ], [ -106.333220682999979, 35.585281724000026 ], [ -106.333623392999982, 35.585245527000041 ], [ -106.333754510999938, 35.585554522000052 ], [ -106.333756892999986, 35.58596103900004 ] ] ] ] } },
{ "type": "Feature", "properties": { "OBJECTID_12": 4, "ADDRESS": "4 CARRO DE CABALLOS", "SIGNER": "LOVATO, ALEX", "OWNER": "PACHECO FAMILY REVOCABLE LIVING TRUST", "PARCEL": "PB-009", "Shape_Length": 0.0023523850237298404, "Shape_Area": 3.1544785172975332e-07 }, "geometry": { "type": "MultiPolygon", "coordinates": [ [ [ [ -106.334138877999976, 35.578242870000054 ], [ -106.333296520999966, 35.578294864000043 ], [ -106.333518778999974, 35.577777540000056 ], [ -106.333900359999973, 35.577734738000061 ], [ -106.334018738999987, 35.577976122000052 ], [ -106.334138877999976, 35.578242870000054 ] ] ] ] } },
{ "type": "Feature", "properties": { "OBJECTID_12": 5, "ADDRESS": "1 LOS LUCEROS", "SIGNER": "LUCERO, EDWARD A", "OWNER": "LUCERO, EDWARD A", "PARCEL": "PB-021", "Shape_Length": 0.0031465409919270554, "Shape_Area": 1.6942345711237892e-07 }, "geometry": { "type": "MultiPolygon", "coordinates": [ [ [ [ -106.333900329999949, 35.579655076000051 ], [ -106.333897734999937, 35.579405138000027 ], [ -106.333087275999958, 35.579359908000072 ], [ -106.33310122499995, 35.579298845000039 ], [ -106.33439519999996, 35.579412422000075 ], [ -106.334376773999963, 35.579658560000041 ], [ -106.333900329999949, 35.579655076000051 ] ] ] ] } },
{ "type": "Feature", "properties": { "OBJECTID_12": 6, "ADDRESS": "836 HWY 22", "SIGNER": "TIXIER, NICOLE", "OWNER": "TIXIER, NICOLE", "PARCEL": "PB-016", "Shape_Length": 0.0018432376962632167, "Shape_Area": 2.0243532008541575e-07 }, "geometry": { "type": "MultiPolygon", "coordinates": [ [ [ [ -106.334272022, 35.574223515000028 ], [ -106.334585519999962, 35.573962686000073 ], [ -106.334956614999953, 35.574117823000051 ], [ -106.335002088999943, 35.574137117000078 ], [ -106.334935767, 35.574223172000075 ], [ -106.33486401, 35.574356803000057 ], [ -106.334799973999964, 35.57447613000005 ], [ -106.334568536999939, 35.574396616000058 ], [ -106.334272022, 35.574223515000028 ] ] ] ] } },
{ "type": "Feature", "properties": { "OBJECTID_12": 7, "ADDRESS": "57 CARRO DECABALLOS", "SIGNER": "HURTADO, CLODOVEO", "OWNER": "HURTADO, LORENZO C JR AND GLORIA", "PARCEL": "PB-011", "Shape_Length": 0.0012119995579035502, "Shape_Area": 8.9450588383560089e-08 }, "geometry": { "type": "MultiPolygon", "coordinates": [ [ [ [ -106.33455100499998, 35.584264831000041 ], [ -106.334593621999943, 35.584255254000027 ], [ -106.334768520999944, 35.584267730000079 ], [ -106.334843565999961, 35.584273082000038 ], [ -106.334784326999966, 35.584430905000033 ], [ -106.334730291999961, 35.584589968000046 ], [ -106.334646379999981, 35.584573215000034 ], [ -106.334626885999967, 35.584569323000039 ], [ -106.334581126999979, 35.584560187000079 ], [ -106.334526457999971, 35.58454927300005 ], [ -106.334443435999958, 35.584532698000032 ], [ -106.334470448, 35.584465432000059 ], [ -106.334498360999987, 35.58439592600007 ], [ -106.33455100499998, 35.584264831000041 ] ] ] ] } },
{ "type": "Feature", "properties": { "OBJECTID_12": 8, "ADDRESS": "9 KEROS RD", "SIGNER": "BERNAL, JOE ANGELO", "OWNER": "BACA, MEL ERNIE", "PARCEL": "PB-001", "Shape_Length": 0.0013609910550962203, "Shape_Area": 1.0451412686514967e-07 }, "geometry": { "type": "MultiPolygon", "coordinates": [ [ [ [ -106.33623739799998, 35.571394001000044 ], [ -106.336297239999965, 35.570944829000041 ], [ -106.336352012999953, 35.570953333000034 ], [ -106.336540576999937, 35.570978805000038 ], [ -106.336463010999978, 35.571407952000072 ], [ -106.33623739799998, 35.571394001000044 ] ] ] ] } },
{ "type": "Feature", "properties": { "OBJECTID_12": 9, "ADDRESS": "9 WINDMILL RD", "SIGNER": "HALL, SALLY", "OWNER": "HALL, SALLY G", "PARCEL": "PB-002", "Shape_Length": 0.0020341402542037616, "Shape_Area": 1.7177487364993471e-07 }, "geometry": { "type": "MultiPolygon", "coordinates": [ [ [ [ -106.337271471999941, 35.569203721000065 ], [ -106.337254607999967, 35.569254071000046 ], [ -106.337253466, 35.569253891000074 ], [ -106.337240507999979, 35.569251853000026 ], [ -106.33717908999995, 35.569427364000035 ], [ -106.337177658999963, 35.569431455000029 ], [ -106.336425000999952, 35.569261378000078 ], [ -106.336473556999977, 35.569071440000073 ], [ -106.337271471999941, 35.569203721000065 ] ] ] ] } },
{ "type": "Feature", "properties": { "OBJECTID_12": 10, "ADDRESS": "784 HIGHWAY 22", "SIGNER": "GRANT, HEATHER ", "OWNER": "GRANT, HEATHER V", "PARCEL": "PB-034", "Shape_Length": 0.0020920289482649762, "Shape_Area": 2.1159979369408225e-07 }, "geometry": { "type": "MultiPolygon", "coordinates": [ [ [ [ -106.337623423999958, 35.568695356000035 ], [ -106.337613429999976, 35.568419586000061 ], [ -106.337820993999969, 35.568437114000062 ], [ -106.338394883999968, 35.568485559000067 ], [ -106.338376882999967, 35.568760541000074 ], [ -106.337623423999958, 35.568695356000035 ] ] ] ] } },
{ "type": "Feature", "properties": { "OBJECTID_12": 11, "ADDRESS": "776 HIGHWAY 22", "SIGNER": "SANDOVAL, KATALINA", "OWNER": "RAEL-SANDOVAL, KATHRYN F AND RAEL, RYAN SEAN", "PARCEL": "PB-008", "Shape_Length": 0.0028467903529337439, "Shape_Area": 3.1274542935284262e-07 }, "geometry": { "type": "MultiPolygon", "coordinates": [ [ [ [ -106.337296668999954, 35.567507655000043 ], [ -106.337338491999958, 35.567264825000052 ], [ -106.337338756999941, 35.567264856000065 ], [ -106.338474282, 35.567388105000077 ], [ -106.338445863999937, 35.567664619000027 ], [ -106.33769502399997, 35.567574710000031 ], [ -106.337293384999953, 35.56752661400003 ], [ -106.337295112999982, 35.567516648000037 ], [ -106.337296668999954, 35.567507655000043 ] ] ] ] } },
{ "type": "Feature", "properties": { "OBJECTID_12": 12, "ADDRESS": "4 ARROYO ABAJO", "SIGNER": "HURTADO, MARY E", "OWNER": "HURTADO,  ARTHUR E. & MARY E", "PARCEL": "PB-027", "Shape_Length": 0.0027665370230747261, "Shape_Area": 3.3436978556187159e-07 }, "geometry": { "type": "MultiPolygon", "coordinates": [ [ [ [ -106.338500110999973, 35.572891175000052 ], [ -106.338620146999972, 35.572885717000077 ], [ -106.338869397999986, 35.572906241000055 ], [ -106.338889004999942, 35.572907856000029 ], [ -106.338576540999952, 35.573148675000027 ], [ -106.338212579999947, 35.573330767000073 ], [ -106.338095241999952, 35.573415585000077 ], [ -106.337985848999949, 35.573323048000077 ], [ -106.33781245299997, 35.573130112000058 ], [ -106.337698543999977, 35.572936281000068 ], [ -106.337700037, 35.572936193000032 ], [ -106.338329845999965, 35.572898915000053 ], [ -106.338500110999973, 35.572891175000052 ] ] ] ] } },
{ "type": "Feature", "properties": { "OBJECTID_12": 13, "ADDRESS": "801 HWY 22", "SIGNER": "LUTE, MICHELLE ", "OWNER": "LUTE,  MICHELLE L", "PARCEL": "PB-019", "Shape_Length": 0.0013241677850642532, "Shape_Area": 1.0666695469926646e-07 }, "geometry": { "type": "MultiPolygon", "coordinates": [ [ [ [ -106.338313465999988, 35.57105645300004 ], [ -106.338375237999969, 35.570796134000034 ], [ -106.338382470999989, 35.570765651000045 ], [ -106.338520717999984, 35.570793242000036 ], [ -106.338766600999975, 35.570842313000071 ], [ -106.33865872399997, 35.571105897000052 ], [ -106.338324273999945, 35.57105800100004 ], [ -106.338313465999988, 35.57105645300004 ] ] ] ] } },
{ "type": "Feature", "properties": { "OBJECTID_12": 14, "ADDRESS": "5 EL CALLEJON", "SIGNER": "CLIFTON, JULIA ", "OWNER": "CLIFTON, JULIA E", "PARCEL": "PB-032", "Shape_Length": 0.0019230742439005596, "Shape_Area": 1.4424664684811235e-07 }, "geometry": { "type": "MultiPolygon", "coordinates": [ [ [ [ -106.338744971999972, 35.572697756000025 ], [ -106.338737640999966, 35.572653376000062 ], [ -106.338789067, 35.57256876200006 ], [ -106.33884169199996, 35.57248217700004 ], [ -106.338501937, 35.572427165000079 ], [ -106.338670449999938, 35.572298681000063 ], [ -106.338850280999964, 35.572325689000024 ], [ -106.338853189999952, 35.572319103000041 ], [ -106.338874897999972, 35.572269950000077 ], [ -106.339030526999977, 35.572300755000072 ], [ -106.339053547, 35.572413304000065 ], [ -106.339056720999963, 35.572643686000049 ], [ -106.338837242999944, 35.572760746000029 ], [ -106.338750700999981, 35.572732444000053 ], [ -106.338744971999972, 35.572697756000025 ] ] ] ] } },
{ "type": "Feature", "properties": { "OBJECTID_12": 15, "ADDRESS": "795 22 HWY", "SIGNER": "SOTELO, EDGAR", "OWNER": "SOTELO, EDGAR AND RODRIGUEZ, ROMELIA", "PARCEL": "PB-012", "Shape_Length": 0.0013120623015066587, "Shape_Area": 1.1237559237966477e-07 }, "geometry": { "type": "MultiPolygon", "coordinates": [ [ [ [ -106.338839021999945, 35.569870215000037 ], [ -106.338552222999965, 35.569806437000068 ], [ -106.338546617999953, 35.569505421000031 ], [ -106.338750260999973, 35.569500140000059 ], [ -106.338947670999971, 35.569701188000067 ], [ -106.338879057999975, 35.569879117000028 ], [ -106.338839021999945, 35.569870215000037 ] ] ] ] } },
{ "type": "Feature", "properties": { "OBJECTID_12": 16, "ADDRESS": "849 22ND HWY", "SIGNER": "ORTIZ, LORRAINE ", "OWNER": "ORTIZ, LORRAINE N", "PARCEL": "PB-018", "Shape_Length": 0.010561631509187611, "Shape_Area": 1.7706714605350691e-06 }, "geometry": { "type": "MultiPolygon", "coordinates": [ [ [ [ -106.339479243999961, 35.576368002000038 ], [ -106.339366268999981, 35.576749192000079 ], [ -106.334480924, 35.576074196000036 ], [ -106.334630544999982, 35.575762315000077 ], [ -106.339479243999961, 35.576368002000038 ] ] ] ] } },
{ "type": "Feature", "properties": { "OBJECTID_12": 17, "ADDRESS": "11 JOAN OF ARC RD", "SIGNER": "LUCERO, ERALDO", "OWNER": "LUCERO, ERALDO C AND JOAN A", "PARCEL": "PB-025", "Shape_Length": 0.0025567206458784698, "Shape_Area": 3.7668042208595601e-07 }, "geometry": { "type": "MultiPolygon", "coordinates": [ [ [ [ -106.338888447999977, 35.57453107200007 ], [ -106.339030939999986, 35.574460502000079 ], [ -106.339322936999963, 35.574584450000032 ], [ -106.339467403999947, 35.574555185000065 ], [ -106.339577911999982, 35.574744464000048 ], [ -106.339628996999977, 35.574900870000079 ], [ -106.339671037999949, 35.575105936000057 ], [ -106.338783991999946, 35.574959524000064 ], [ -106.338888447999977, 35.57453107200007 ] ] ] ] } },
{ "type": "Feature", "properties": { "OBJECTID_12": 18, "ADDRESS": "9 ABREVADERO RD", "SIGNER": "GILMARTIN, ELAINE", "OWNER": "GILMARTIN, ELAINE", "PARCEL": "PB-030", "Shape_Length": 0.001967462886284591, "Shape_Area": 2.5123048598356065e-07 }, "geometry": { "type": "MultiPolygon", "coordinates": [ [ [ [ -106.339268391999951, 35.570998128000042 ], [ -106.339707408999971, 35.57104958900004 ], [ -106.33968955399996, 35.571405965000054 ], [ -106.339560948999974, 35.571576900000025 ], [ -106.339162323999972, 35.571542489000024 ], [ -106.339268391999951, 35.570998128000042 ] ] ] ] } },
{ "type": "Feature", "properties": { "OBJECTID_12": 19, "ADDRESS": "8 LOS SANDOVALES", "SIGNER": "SOTELO, EDGAR", "OWNER": "SOTELO, EDGAR AND RODRIGUEZ, ROMELIA", "PARCEL": "PB-013", "Shape_Length": 0.0038571794528354823, "Shape_Area": 6.0464923434048637e-07 }, "geometry": { "type": "MultiPolygon", "coordinates": [ [ [ [ -106.337041992999957, 35.567509543000028 ], [ -106.336396402, 35.567430181000077 ], [ -106.336283074999983, 35.567415924000045 ], [ -106.336353791999954, 35.567120505000048 ], [ -106.336353923, 35.567120049000039 ], [ -106.336444329999949, 35.566756748000046 ], [ -106.33653587699996, 35.566771260000053 ], [ -106.337136051999948, 35.566787590000047 ], [ -106.337634724999987, 35.56682322000006 ], [ -106.337631249999959, 35.566854609000075 ], [ -106.33761141399998, 35.566991163000068 ], [ -106.337390027999959, 35.566966249000075 ], [ -106.337169186999972, 35.566934564000064 ], [ -106.337111780999976, 35.56723753700004 ], [ -106.337059819999979, 35.567511735000039 ], [ -106.337041992999957, 35.567509543000028 ] ] ] ] } },
{ "type": "Feature", "properties": { "OBJECTID_12": 20, "ADDRESS": "11 ABREVADERO RD", "SIGNER": "ARAGON, JIMMY F", "OWNER": "ARAGON, JIMMY F", "PARCEL": "PB-020", "Shape_Length": 0.0018035288383902448, "Shape_Area": 1.9277510204971777e-07 }, "geometry": { "type": "MultiPolygon", "coordinates": [ [ [ [ -106.340241659999947, 35.571446435000041 ], [ -106.33968955399996, 35.571405965000054 ], [ -106.339707408999971, 35.57104958900004 ], [ -106.340262908999989, 35.571113257000036 ], [ -106.340261145999989, 35.57118822800004 ], [ -106.340256245999967, 35.571285558000056 ], [ -106.340241659999947, 35.571446435000041 ] ] ] ] } },
{ "type": "Feature", "properties": { "OBJECTID_12": 21, "ADDRESS": "10 ABREVADERO RD", "SIGNER": "LUCERO,  CARLA", "OWNER": "LEYBA, ROBERT J AND RAMONA D AND LUCERO, CARLA M", "PARCEL": "PB-004", "Shape_Length": 0.0025776681117684157, "Shape_Area": 2.2247727225962192e-07 }, "geometry": { "type": "MultiPolygon", "coordinates": [ [ [ [ -106.33993391599995, 35.570435186000054 ], [ -106.340190964999977, 35.570718267000075 ], [ -106.340221619999966, 35.570782125000051 ], [ -106.340244930999972, 35.570848021000074 ], [ -106.340260699999988, 35.570915394000053 ], [ -106.34026879399994, 35.570983668000054 ], [ -106.340269141999954, 35.571052261000034 ], [ -106.340246058999981, 35.571047959000055 ], [ -106.340040263, 35.571009612000069 ], [ -106.340005773999962, 35.571003186000041 ], [ -106.340016572999957, 35.570925714000055 ], [ -106.339687898999955, 35.570906725000043 ], [ -106.339670395999974, 35.570978790000026 ], [ -106.339496103999977, 35.570951115000071 ], [ -106.339555808999989, 35.570683529000064 ], [ -106.339573369, 35.570684696000058 ], [ -106.339929653999945, 35.570708361000072 ], [ -106.339930164999942, 35.570675616000074 ], [ -106.339933765999945, 35.57044505500005 ], [ -106.33993391599995, 35.570435186000054 ] ] ] ] } },
{ "type": "Feature", "properties": { "OBJECTID_12": 22, "ADDRESS": "9 CALLE CAPILLITA", "SIGNER": "MARES, ESTHER AND SANDRA", "OWNER": "MARES, ROMEO AND ESTHER ", "PARCEL": "PB-005", "Shape_Length": 0.00085473380941565071, "Shape_Area": 2.6641953727404548e-08 }, "geometry": { "type": "MultiPolygon", "coordinates": [ [ [ [ -106.34016760999998, 35.57031513700008 ], [ -106.34005063099994, 35.570203597000045 ], [ -106.340169834999983, 35.57020612000008 ], [ -106.34019230499996, 35.570206595000059 ], [ -106.340270049999958, 35.570205850000036 ], [ -106.340296411999987, 35.57047370500004 ], [ -106.340253067, 35.570413294000048 ], [ -106.34016760999998, 35.57031513700008 ] ] ] ] } },
{ "type": "Feature", "properties": { "OBJECTID_12": 23, "ADDRESS": "24 CALLE ESQUELA VIEJA", "SIGNER": "LARRANAGA, ROSINA ", "OWNER": "LARRANAGA, EMELECIO A AND ROSINA R", "PARCEL": "PB-024", "Shape_Length": 0.0037707225977870167, "Shape_Area": 4.404023075446757e-07 }, "geometry": { "type": "MultiPolygon", "coordinates": [ [ [ [ -106.340422145, 35.574596907000057 ], [ -106.340545536999969, 35.573855941000033 ], [ -106.340192029999969, 35.573853362000079 ], [ -106.340130862999956, 35.573585176000051 ], [ -106.341060697999978, 35.57365450900005 ], [ -106.341030228999955, 35.573806132000072 ], [ -106.341010272999938, 35.573905446000026 ], [ -106.340884521999953, 35.57389329800003 ], [ -106.340846752999937, 35.573889650000069 ], [ -106.340709770999979, 35.574625412000046 ], [ -106.340709595999954, 35.574626347000049 ], [ -106.340475688999959, 35.574602801000026 ], [ -106.340422145, 35.574596907000057 ] ] ] ] } },
{ "type": "Feature", "properties": { "OBJECTID_12": 24, "ADDRESS": "47 SPARKLING MOOLAH RD", "SIGNER": "WILLIAMSON, ROBIN ", "OWNER": "WILLIAMSON, ROBIN ", "PARCEL": "PB-039", "Shape_Length": 0.0020283947941872934, "Shape_Area": 1.7394676709393515e-07 }, "geometry": { "type": "MultiPolygon", "coordinates": [ [ [ [ -106.344487951999952, 35.554822869000077 ], [ -106.345219929999985, 35.554503576000059 ], [ -106.345340631999989, 35.554697841000063 ], [ -106.345106558999987, 35.554797918000077 ], [ -106.344631448999962, 35.555001047000076 ], [ -106.344605947, 35.554959247000056 ], [ -106.344570914999963, 35.554912503000025 ], [ -106.344537797999976, 35.554870434000065 ], [ -106.344487951999952, 35.554822869000077 ] ] ] ] } },
{ "type": "Feature", "properties": { "OBJECTID_12": 25, "ADDRESS": "32 ACEQUIA RD", "SIGNER": "MARISCAL, RAMON ", "OWNER": "MARISCAL, RAMON AND ROSA", "PARCEL": "PB-036", "Shape_Length": 0.0026967713978566857, "Shape_Area": 4.2557509556431757e-07 }, "geometry": { "type": "MultiPolygon", "coordinates": [ [ [ [ -106.345180653999989, 35.574778613000035 ], [ -106.345371255999964, 35.574375359000044 ], [ -106.345883671999957, 35.574524433000079 ], [ -106.345536961999983, 35.575239241000077 ], [ -106.345014335999963, 35.575129921000041 ], [ -106.345038188, 35.575080009000033 ], [ -106.345180653999989, 35.574778613000035 ] ] ] ] } },
{ "type": "Feature", "properties": { "OBJECTID_12": 26, "ADDRESS": "51 ABERVADERO RD (?) #49", "SIGNER": "GONZALES, LOUIE ", "OWNER": "GONZALES, LOUIE M", "PARCEL": "PB-026", "Shape_Length": 0.0022859255857490164, "Shape_Area": 3.2361882742375768e-07 }, "geometry": { "type": "MultiPolygon", "coordinates": [ [ [ [ -106.346592412999939, 35.571943260000069 ], [ -106.346672035999973, 35.571740137000063 ], [ -106.347188865999954, 35.571889475000035 ], [ -106.347171016999937, 35.571939626000074 ], [ -106.347063178999974, 35.572242632000041 ], [ -106.346997599999952, 35.572426897000071 ], [ -106.346984557999974, 35.572424205000061 ], [ -106.346447432, 35.572313349000069 ], [ -106.34644734699998, 35.572313331000032 ], [ -106.346592412999939, 35.571943260000069 ] ] ] ] } },
{ "type": "Feature", "properties": { "OBJECTID_12": 27, "ADDRESS": "21 SPARKLING MOOLAH", "SIGNER": "CLEFF, GRETCHEN ", "OWNER": "CLEFF, GRETCHEN B REVOCABLE TRUST", "PARCEL": "PB-029", "Shape_Length": 0.0073998746955582506, "Shape_Area": 1.8029402519966691e-06 }, "geometry": { "type": "MultiPolygon", "coordinates": [ [ [ [ -106.344123918999969, 35.55713729200005 ], [ -106.344866531999969, 35.557213766000075 ], [ -106.344866595999974, 35.557213772000068 ], [ -106.345978819999971, 35.557328279000046 ], [ -106.34597888199994, 35.557328280000036 ], [ -106.34613707799997, 35.557447032000027 ], [ -106.346230720999984, 35.557576022000035 ], [ -106.346612496999967, 35.55815756100003 ], [ -106.345785883999952, 35.558165187000043 ], [ -106.345810480999944, 35.557935812000039 ], [ -106.344717526999943, 35.55787368700004 ], [ -106.344693972999949, 35.558028749000073 ], [ -106.34392558899998, 35.557938308000075 ], [ -106.343677666999952, 35.558128602000068 ], [ -106.344123918999969, 35.55713729200005 ] ] ] ] } },
{ "type": "Feature", "properties": { "OBJECTID_12": 28, "ADDRESS": "7 CALLE LA VEGA", "SIGNER": "LEYBA, ISIDORITA", "OWNER": "LEYBA, ISIDORITA", "PARCEL": "PB-015", "Shape_Length": 0.0018799590384181945, "Shape_Area": 1.6494210029349037e-07 }, "geometry": { "type": "MultiPolygon", "coordinates": [ [ [ [ -106.335309958999972, 35.582587509000064 ], [ -106.335241014999951, 35.582594088000064 ], [ -106.335241044999975, 35.582593849000034 ], [ -106.334966903999941, 35.582222479000052 ], [ -106.335256738999988, 35.582158376000052 ], [ -106.335406139999975, 35.582379196000034 ], [ -106.335436410999989, 35.582367227000077 ], [ -106.335523125999941, 35.582513577000043 ], [ -106.335532782999962, 35.582539557000075 ], [ -106.335539752999978, 35.582566103000033 ], [ -106.335510190999969, 35.582714657000054 ], [ -106.335296217999939, 35.582746684000028 ], [ -106.335309958999972, 35.582587509000064 ] ] ] ] } },
{ "type": "Feature", "properties": { "OBJECTID_12": 29, "ADDRESS": "45 ABREVADERO RD", "SIGNER": "ESTRADA, JOSEPHINE", "OWNER": "LEYBA DE ESTRADA, JOSEPHINE AND LEYBA, ISAAC", "PARCEL": "PB-003", "Shape_Length": 0.0049930945572012365, "Shape_Area": 3.7722517655896723e-07 }, "geometry": { "type": "MultiPolygon", "coordinates": [ [ [ [ -106.34619515299994, 35.572885675000066 ], [ -106.346107837999966, 35.573018844000046 ], [ -106.346097355999973, 35.573017863000075 ], [ -106.346102138, 35.573027538000076 ], [ -106.343860553999946, 35.572808519000034 ], [ -106.343816505999939, 35.572804215000076 ], [ -106.34387174799997, 35.572633938000024 ], [ -106.343909898, 35.572638072000075 ], [ -106.34619515299994, 35.572885675000066 ] ] ] ] } },
{ "type": "Feature", "properties": { "OBJECTID_12": 30, "ADDRESS": "59 ACEQUIA RD", "SIGNER": "MONICA PIZANA", "OWNER": "PIZANA, ROBERT L  AND MONICA J", "PARCEL": "PB-022", "Shape_Length": 0.006023154561266379, "Shape_Area": 9.7149021466580496e-07 }, "geometry": { "type": "MultiPolygon", "coordinates": [ [ [ [ -106.348992374999966, 35.569883210000057 ], [ -106.349059058999956, 35.569623339000032 ], [ -106.347598510999944, 35.569624530000056 ], [ -106.347693014999948, 35.569340021000073 ], [ -106.349132055999974, 35.569338827000024 ], [ -106.349200059999987, 35.569073807000052 ], [ -106.34920398099996, 35.569058528000028 ], [ -106.349987250999959, 35.56908474200003 ], [ -106.349986061999971, 35.569087051000054 ], [ -106.349576152999987, 35.569883807000053 ], [ -106.348992374999966, 35.569883210000057 ] ] ] ] } },
{ "type": "Feature", "properties": { "OBJECTID_12": 31, "ADDRESS": "730 HWY 22 (VERIFY-NO ADDRESS ON AGRMNT)", "SIGNER": "ROMERO, JOSEPH E", "OWNER": "ROMERO, JOSEPH E", "PARCEL": "PB-035", "Shape_Length": 0.002176779041406572, "Shape_Area": 2.3637632292130321e-07 }, "geometry": { "type": "MultiPolygon", "coordinates": [ [ [ [ -106.340766751, 35.560948763000056 ], [ -106.340709487999959, 35.560932958000024 ], [ -106.340889452999988, 35.56059844400005 ], [ -106.340893221999977, 35.56059840000006 ], [ -106.341625935999957, 35.560914696000054 ], [ -106.341329866999956, 35.561104185000033 ], [ -106.340766751, 35.560948763000056 ] ] ] ] } },
{ "type": "Feature", "properties": { "OBJECTID_12": 32, "ADDRESS": "842 HWY 22", "SIGNER": "ORTIZ, LORI", "OWNER": "ORTIZ, HENRY & LORRAINE N.", "PARCEL": "PB-017", "Shape_Length": 0.0019505791253134658, "Shape_Area": 1.7227714494576006e-07 }, "geometry": { "type": "MultiPolygon", "coordinates": [ [ [ [ -106.333807425999964, 35.574870457000031 ], [ -106.333807449999938, 35.574870395000062 ], [ -106.333811458999946, 35.574871644000041 ], [ -106.334517438999967, 35.575091615000076 ], [ -106.334475944999951, 35.575194807000059 ], [ -106.334432315999948, 35.575286697000024 ], [ -106.333714703999988, 35.575107114000048 ], [ -106.333807425999964, 35.574870457000031 ] ] ] ] } },
{ "type": "Feature", "properties": { "OBJECTID_12": 33, "ADDRESS": "21 LEWIS LANE", "SIGNER": "LEWIS, JAMES A", "OWNER": "LEWIS, JAMES AARON", "PARCEL": "PB-028", "Shape_Length": 0.0022851425832166108, "Shape_Area": 3.035638284674811e-07 }, "geometry": { "type": "MultiPolygon", "coordinates": [ [ [ [ -106.343521878999979, 35.562258666000048 ], [ -106.344221351999977, 35.562472168000056 ], [ -106.344079268999963, 35.562868128000048 ], [ -106.344065936999982, 35.562865083000077 ], [ -106.344041868999966, 35.562859585000069 ], [ -106.34339336, 35.562652073000038 ], [ -106.343521878999979, 35.562258666000048 ] ] ] ] } },
{ "type": "Feature", "properties": { "OBJECTID_12": 34, "ADDRESS": "728 22 HWY", "SIGNER": "TERRAZAS, JESUS AND TERRAZAS, ALVARO", "OWNER": "TERRAZAS-LEON, JESUS ALONZO AND TERRAZAS, ALVARO", "PARCEL": "PB-023", "Shape_Length": 0.0031575662464913825, "Shape_Area": 4.4448842849598892e-07 }, "geometry": { "type": "MultiPolygon", "coordinates": [ [ [ [ -106.338959070999977, 35.561402120000025 ], [ -106.339055507999944, 35.561051858000042 ], [ -106.340280643999961, 35.561289783000063 ], [ -106.340100330999974, 35.56161992300008 ], [ -106.340013781999971, 35.561605532000044 ], [ -106.339502941999967, 35.561520589000054 ], [ -106.338957104999963, 35.56140926300003 ], [ -106.338959070999977, 35.561402120000025 ] ] ] ] } },
{ "type": "Feature", "properties": { "OBJECTID_12": 35, "ADDRESS": "726 HWY 22", "SIGNER": "ROYBAL, ROSEMARY", "OWNER": "ROYBAL, JOSE AND ROSEMARY", "PARCEL": "PB-007", "Shape_Length": 0.0042062540781964983, "Shape_Area": 6.9753080602773889e-07 }, "geometry": { "type": "MultiPolygon", "coordinates": [ [ [ [ -106.340373923999948, 35.560794276000024 ], [ -106.338758115999951, 35.560358184000052 ], [ -106.33896515899994, 35.559982486000024 ], [ -106.340581795, 35.560418792000064 ], [ -106.340415079999957, 35.56071993300003 ], [ -106.340373923999948, 35.560794276000024 ] ] ] ] } },
{ "type": "Feature", "properties": { "OBJECTID_12": 36, "ADDRESS": "794 HWY 22", "SIGNER": "SNYDER, LAUREEN ", "OWNER": "SNYDER, LAUREEN D", "PARCEL": "PB-037", "Shape_Length": 0.0023674066249721295, "Shape_Area": 2.1595263797944832e-07 }, "geometry": { "type": "MultiPolygon", "coordinates": [ [ [ [ -106.338177725999969, 35.569896310000047 ], [ -106.338131050999948, 35.56998572100008 ], [ -106.338001848999966, 35.569983225000044 ], [ -106.337626584999953, 35.569975974000045 ], [ -106.337406371999975, 35.56997171900008 ], [ -106.337410150999972, 35.569891919000042 ], [ -106.337413216999948, 35.569827175000057 ], [ -106.337420854999948, 35.56966589700005 ], [ -106.338352117999989, 35.569800501000032 ], [ -106.338351422999949, 35.56991589200004 ], [ -106.338327016999983, 35.569912233000025 ], [ -106.338180852999983, 35.56989032000007 ], [ -106.338177725999969, 35.569896310000047 ] ] ] ] } },
{ "type": "Feature", "properties": { "OBJECTID_12": 37, "ADDRESS": "760 HWY 22", "SIGNER": "BAUER, LORENA", "OWNER": "PALOMINO, DORA ", "PARCEL": "PB-040", "Shape_Length": 0.0056350072883781452, "Shape_Area": 8.8445090164027861e-07 }, "geometry": { "type": "MultiPolygon", "coordinates": [ [ [ [ -106.336323984999979, 35.56479230900004 ], [ -106.336513831, 35.564449813000067 ], [ -106.338805393999962, 35.564755280000043 ], [ -106.338805394999952, 35.564755308000031 ], [ -106.338815365999949, 35.564865642000029 ], [ -106.338830847999986, 35.564975551000032 ], [ -106.338837651999938, 35.565014445000031 ], [ -106.338856329999942, 35.565128637000043 ], [ -106.336323984999979, 35.56479230900004 ] ] ] ] } },
{ "type": "Feature", "properties": { "OBJECTID_12": 38, "ADDRESS": "15 ABREVADERO RD", "SIGNER": "LEYBA, JOSEPHINE", "OWNER": "LEYBA,  JOSEPHINE", "PARCEL": "PB-031", "Shape_Length": 0.0022762303211792314, "Shape_Area": 3.058652305801429e-07 }, "geometry": { "type": "MultiPolygon", "coordinates": [ [ [ [ -106.340389362999986, 35.571724375000031 ], [ -106.340645195999969, 35.571136393000074 ], [ -106.341049498999951, 35.571174318000033 ], [ -106.340867247999938, 35.571878042000037 ], [ -106.340389362999986, 35.571724375000031 ] ] ] ] } },
{ "type": "Feature", "properties": { "OBJECTID_12": 39, "ADDRESS": "858 HWY 22", "SIGNER": "ORTIZ, JANICE ", "OWNER": "ORTIZ, JANICE J AND LORRAINE N", "PARCEL": "PB-038", "Shape_Length": 0.0027769555976619436, "Shape_Area": 4.3912451238080054e-07 }, "geometry": { "type": "MultiPolygon", "coordinates": [ [ [ [ -106.333546928999965, 35.57700034700008 ], [ -106.333334936999961, 35.577481457000033 ], [ -106.332508814999983, 35.577333950000025 ], [ -106.332636828999966, 35.57685979300004 ], [ -106.333546928999965, 35.57700034700008 ] ] ] ] } },
{ "type": "Feature", "properties": { "OBJECTID_12": 40, "ADDRESS": "5 CALLE LA VEGA", "SIGNER": "LEYBA, ISIDORITA", "OWNER": "LEYBA, ISIDORITA", "PARCEL": "PB-014", "Shape_Length": 0.0018799607189833537, "Shape_Area": 1.6494196732490962e-07 }, "geometry": { "type": "MultiPolygon", "coordinates": [ [ [ [ -106.335299965, 35.582581772000026 ], [ -106.335231019999981, 35.582588351000027 ], [ -106.335231050999937, 35.582588112000053 ], [ -106.33495690899997, 35.582216742000071 ], [ -106.33524674399996, 35.582152639000071 ], [ -106.335396144999947, 35.582373459000053 ], [ -106.335426416999951, 35.582361490000039 ], [ -106.33551313199996, 35.582507841000051 ], [ -106.335522788, 35.582533820000037 ], [ -106.33552975899994, 35.582560366000052 ], [ -106.335500195999941, 35.582708920000073 ], [ -106.335286223999958, 35.582740947000048 ], [ -106.335299965, 35.582581772000026 ] ] ] ] } },
{ "type": "Feature", "properties": { "OBJECTID_12": 41, "ADDRESS": "786 HWY 22", "SIGNER": "QUINTANA, JUSTIN", "OWNER": "QUINTANA, JUSTIN", "PARCEL": "PB-042", "Shape_Length": 0.0020680318278986586, "Shape_Area": 2.0211383456514315e-07 }, "geometry": { "type": "MultiPolygon", "coordinates": [ [ [ [ -106.338366888999985, 35.568754806000072 ], [ -106.338341002999982, 35.569013536000057 ], [ -106.337558370999943, 35.568950438000059 ], [ -106.337613429999976, 35.568689621000033 ], [ -106.338366888999985, 35.568754806000072 ] ] ] ] } },
{ "type": "Feature", "properties": { "OBJECTID_12": 43, "ADDRESS": "46 SPARKLING MOOLAH RD", "SIGNER": "BOYD-DOMINGUEZ, GERARDO", "OWNER": "BOYD-DOMINGUEZ, GERARDO", "PARCEL": "PB-041", "Shape_Length": 0.0045699867282874953, "Shape_Area": 1.0791771976467992e-06 }, "geometry": { "type": "MultiPolygon", "coordinates": [ [ [ [ -106.344621454999981, 35.554995314000053 ], [ -106.345096564999949, 35.554792185000053 ], [ -106.345522593999988, 35.555009265000024 ], [ -106.345328994999988, 35.555818339000041 ], [ -106.345448635999958, 35.556058316000076 ], [ -106.345409513, 35.556380814000079 ], [ -106.344724290999977, 35.556222003000073 ], [ -106.344515340999976, 35.556169966000027 ], [ -106.344669910999983, 35.555715780000071 ], [ -106.344712347999973, 35.555602687000032 ], [ -106.344722887999978, 35.555515709000076 ], [ -106.344726316999981, 35.55541424200004 ], [ -106.344729768999969, 35.555333068000039 ], [ -106.344711870999959, 35.555196830000057 ], [ -106.34467981399996, 35.555086695000057 ], [ -106.344621454999981, 35.554995314000053 ] ] ] ] } },
{ "type": "Feature", "properties": { "OBJECTID_12": 44, "ADDRESS": "SILE STAGING SITE", "SIGNER": "SILE MUTUAL DOMESTIC WATER AND SANITATION ALLIANCE", "OWNER": null, "PARCEL": "PB-044", "Shape_Length": 0.023996888426043767, "Shape_Area": 8.5375488727745653e-06 }, "geometry": { "type": "MultiPolygon", "coordinates": [ [ [ [ -106.371612111, 35.555497478000063 ], [ -106.371723587999952, 35.555890887000032 ], [ -106.37177404, 35.556068936000031 ], [ -106.371799367999984, 35.556172738000043 ], [ -106.371816843999966, 35.556277616000045 ], [ -106.371826401999954, 35.556383173000029 ], [ -106.371830419, 35.556459234000044 ], [ -106.361159070999975, 35.55482676500003 ], [ -106.360776097999974, 35.554768161000027 ], [ -106.360831296999947, 35.554208509000034 ], [ -106.365508022999961, 35.55493098900007 ], [ -106.365554446999965, 35.554536947000031 ], [ -106.371612111, 35.555497478000063 ] ] ] ] } },
{ "type": "Feature", "properties": { "OBJECTID_12": 45, "ADDRESS": "HWY 22 RIGHT-OF-WAY: 5 FT TREATMENT STRIP ON BOTH SIDES OF PAVEMENT", "SIGNER": "USDOT MOA", "OWNER": null, "PARCEL": "PB-043", "Shape_Length": 0.15809516003197566, "Shape_Area": 1.2966902154226703e-06 }, "geometry": { "type": "MultiPolygon", "coordinates": [ [ [ [ -106.342439577999983, 35.553577224000037 ], [ -106.342442496999979, 35.55357701500003 ], [ -106.34244317799994, 35.553577026000028 ], [ -106.342442496999979, 35.553590750000069 ], [ -106.342396497999971, 35.554517751000049 ], [ -106.342385497999942, 35.554729751000025 ], [ -106.342376497999965, 35.554928751000034 ], [ -106.34234549699994, 35.555367750000073 ], [ -106.342332496999973, 35.555555751000043 ], [ -106.342330496999978, 35.555580750000047 ], [ -106.342301496999937, 35.555915750000054 ], [ -106.342265496999971, 35.556418750000034 ], [ -106.342257497, 35.556545751000044 ], [ -106.342187495999951, 35.557020750000049 ], [ -106.342093496999951, 35.557533750000061 ], [ -106.342036496999981, 35.557819750000078 ], [ -106.341899496999986, 35.558222751000073 ], [ -106.341740495999943, 35.558602750000034 ], [ -106.341623495999954, 35.558838750000064 ], [ -106.341375495999955, 35.559343750000039 ], [ -106.34124249599995, 35.559588751000035 ], [ -106.341168495999966, 35.55972575100003 ], [ -106.341123495999966, 35.559808750000059 ], [ -106.341088495999941, 35.559873750000065 ], [ -106.340965493999988, 35.560115752000058 ], [ -106.340596493999954, 35.560842751000052 ], [ -106.340474496999946, 35.561085751000064 ], [ -106.340404495999962, 35.561213751000025 ], [ -106.340192495999986, 35.561597752000068 ], [ -106.340123496999979, 35.561726751000037 ], [ -106.339879493999945, 35.562113750000037 ], [ -106.339600493999967, 35.562630750000039 ], [ -106.339194493999969, 35.563347750000048 ], [ -106.339020493999953, 35.563735750000035 ], [ -106.338984492999941, 35.563826749000043 ], [ -106.33895049399996, 35.563919750000025 ], [ -106.338902492999978, 35.564109750000057 ], [ -106.338890493999941, 35.564160749000052 ], [ -106.338875493999979, 35.564201749000063 ], [ -106.338835493999966, 35.56446475000007 ], [ -106.33883749499995, 35.564703749000046 ], [ -106.338863493999952, 35.565060749000054 ], [ -106.338883492999969, 35.565416750000054 ], [ -106.33885249399998, 35.565713750000043 ], [ -106.338827493999986, 35.565806750000036 ], [ -106.338744492999979, 35.566133750000063 ], [ -106.338708492999956, 35.566265750000071 ], [ -106.338612492999971, 35.56653575100006 ], [ -106.338591492999967, 35.566658750000045 ], [ -106.338568491999979, 35.566793750000045 ], [ -106.338562492999984, 35.56682875000007 ], [ -106.338544492999972, 35.567035751000049 ], [ -106.33854149299998, 35.567064750000043 ], [ -106.338535492999938, 35.56713975100007 ], [ -106.338485491999961, 35.567880751000075 ], [ -106.338468492999937, 35.568153751000068 ], [ -106.338463493999939, 35.568229751000047 ], [ -106.338449491999938, 35.568458751000037 ], [ -106.338445492999938, 35.56853575100007 ], [ -106.338436491999971, 35.56868275000005 ], [ -106.338408492999974, 35.569125751000058 ], [ -106.338400492999938, 35.569273750000036 ], [ -106.338392491999969, 35.569370750000076 ], [ -106.338370492999957, 35.569664750000072 ], [ -106.338364492999972, 35.569762750000052 ], [ -106.338359491999938, 35.569823751000058 ], [ -106.338345491999974, 35.570009750000054 ], [ -106.338341491999984, 35.570071750000068 ], [ -106.338339490999942, 35.570092750000072 ], [ -106.338334489999966, 35.570157751000067 ], [ -106.338333489999968, 35.570179751000069 ], [ -106.338322490999985, 35.570289750000029 ], [ -106.338296490999937, 35.570584751000069 ], [ -106.338288491999947, 35.570618750000051 ], [ -106.338267491999943, 35.570727751000049 ], [ -106.338250491999986, 35.570811750000075 ], [ -106.338223491999941, 35.570946750000076 ], [ -106.338179490999948, 35.571059751000064 ], [ -106.338148491999959, 35.57114075000004 ], [ -106.33803549299995, 35.571426751000047 ], [ -106.337976492999985, 35.571579751000058 ], [ -106.337844489999952, 35.57183475100004 ], [ -106.337700490999964, 35.572036750000052 ], [ -106.33754449099996, 35.572173750000047 ], [ -106.337532489999944, 35.572183751000068 ], [ -106.337354490999985, 35.57234075100007 ], [ -106.337307491, 35.572392750000063 ], [ -106.337196490999986, 35.572492750000038 ], [ -106.337087489999988, 35.572639750000064 ], [ -106.336984491999942, 35.572800749000066 ], [ -106.336802491999947, 35.573002749000068 ], [ -106.336637490999976, 35.573148748000051 ], [ -106.336530491999952, 35.573239749000038 ], [ -106.336308490999954, 35.573386748000075 ], [ -106.335656489999963, 35.573780750000026 ], [ -106.335318489999963, 35.574007750000078 ], [ -106.33517149, 35.574128750000057 ], [ -106.335033489999944, 35.574257751000061 ], [ -106.33490149, 35.574483751000059 ], [ -106.334719489999941, 35.574856750000038 ], [ -106.33422448999994, 35.575878749000026 ], [ -106.333921489999966, 35.576538750000054 ], [ -106.333851489999972, 35.576690749000079 ], [ -106.333571488999951, 35.577306749000059 ], [ -106.333077488999947, 35.578312749000077 ], [ -106.332987488999947, 35.578498749000062 ], [ -106.332647488999953, 35.579221749000055 ], [ -106.332416487999978, 35.579650749000052 ], [ -106.332253488, 35.580066749000025 ], [ -106.33205548799998, 35.58048874800005 ], [ -106.331826488, 35.58101074800004 ], [ -106.331713488, 35.581298749000041 ], [ -106.33169548799998, 35.581372749000025 ], [ -106.331643486999951, 35.581589749000045 ], [ -106.331445486999939, 35.582231749000073 ], [ -106.331423486999938, 35.582456749000073 ], [ -106.33141048799996, 35.582578749000049 ], [ -106.33136148799997, 35.58294674900003 ], [ -106.331345487999954, 35.58306974900006 ], [ -106.331263485999955, 35.583723749000058 ], [ -106.331150486999945, 35.58436774900008 ], [ -106.331143485999974, 35.584439749000069 ], [ -106.331091486999981, 35.585073750000049 ], [ -106.330879486999947, 35.58678474900006 ], [ -106.330610484999966, 35.58835674900007 ], [ -106.330584485999964, 35.58855674800003 ], [ -106.330480485999942, 35.589362749000031 ], [ -106.330416484999944, 35.58993274900007 ], [ -106.330414949999977, 35.589946427000029 ], [ -106.330413564999958, 35.589946276000035 ], [ -106.33041073399994, 35.589945656000054 ], [ -106.330408076999959, 35.58994464400007 ], [ -106.330405675999941, 35.589943271000038 ], [ -106.330403602999979, 35.589941578000037 ], [ -106.330401921999965, 35.589939617000027 ], [ -106.330400683999983, 35.589937447000068 ], [ -106.330399924999938, 35.589935134000029 ], [ -106.330399669999963, 35.58993274900007 ], [ -106.330399739999962, 35.589931494000041 ], [ -106.330463751999957, 35.589361402000065 ], [ -106.330567762999976, 35.588555304000067 ], [ -106.330593763999957, 35.588355298000067 ], [ -106.330593830999987, 35.588354847000062 ], [ -106.33086278899998, 35.586783107000031 ], [ -106.331074728999965, 35.585072594000053 ], [ -106.331126716999961, 35.584438746000046 ], [ -106.331133723999983, 35.584366662000036 ], [ -106.331133841999986, 35.584365801000047 ], [ -106.331246793, 35.583722077000061 ], [ -106.331328763999977, 35.583068324000067 ], [ -106.331344769999987, 35.582945280000047 ], [ -106.331393752999986, 35.582577403000073 ], [ -106.331406730999959, 35.582455603000028 ], [ -106.331428724999967, 35.582230655000046 ], [ -106.331428927, 35.582229363000067 ], [ -106.331429180999976, 35.582228393000037 ], [ -106.331627073, 35.581586746000028 ], [ -106.331678991999979, 35.581370091000053 ], [ -106.331696995999948, 35.581296072000043 ], [ -106.331697476999977, 35.581294556000046 ], [ -106.331810475999987, 35.581006556000034 ], [ -106.331810659999974, 35.581006114000047 ], [ -106.332039730999952, 35.580483958000059 ], [ -106.332237619999944, 35.580062189000046 ], [ -106.332400474999986, 35.579646561000061 ], [ -106.33240068799995, 35.579646051000054 ], [ -106.332401096999945, 35.579645218000053 ], [ -106.332631938999953, 35.579216515000041 ], [ -106.33297182299998, 35.578493761000061 ], [ -106.333061867999959, 35.578307667000047 ], [ -106.333555795999985, 35.577301814000066 ], [ -106.333835740999973, 35.576685939000072 ], [ -106.333905749999985, 35.576533919000042 ], [ -106.334208801999978, 35.575873811000065 ], [ -106.334703863999948, 35.574851679000062 ], [ -106.334885871999973, 35.574478664000026 ], [ -106.334886315999938, 35.574477835000039 ], [ -106.335018315999946, 35.574251835000041 ], [ -106.335018928999943, 35.574250883000047 ], [ -106.335020610999948, 35.574248921000049 ], [ -106.335020829999962, 35.574248711000052 ], [ -106.335158830999944, 35.574119711000037 ], [ -106.33515955699994, 35.574119075000056 ], [ -106.335306556999967, 35.573998074000031 ], [ -106.335307746999945, 35.573997184000063 ], [ -106.335645812999985, 35.573770138000043 ], [ -106.335646491999967, 35.573769706000064 ], [ -106.336298197999952, 35.573375885000075 ], [ -106.336519093, 35.573229615000059 ], [ -106.336625242999958, 35.573139339000079 ], [ -106.336789498999963, 35.572993997000026 ], [ -106.336970188999942, 35.572793453000031 ], [ -106.337072590999981, 35.572633387000053 ], [ -106.337072929999977, 35.57263288200005 ], [ -106.337073110999938, 35.572632633000069 ], [ -106.337182110999947, 35.572485632000053 ], [ -106.337183612, 35.572483920000025 ], [ -106.337184036999986, 35.572483522000027 ], [ -106.337294468999971, 35.572384034000038 ], [ -106.337340965999942, 35.572332591000077 ], [ -106.337341611999989, 35.572331921000057 ], [ -106.337342156999966, 35.572331417000044 ], [ -106.337520156999972, 35.572174417000042 ], [ -106.33752048499997, 35.572174134000079 ], [ -106.337532328999941, 35.572164265000026 ], [ -106.337686904999941, 35.572028516000046 ], [ -106.337829424999939, 35.571828592000031 ], [ -106.337960693999946, 35.571575007000035 ], [ -106.338019474999953, 35.571422577000078 ], [ -106.338132471999984, 35.571136583000055 ], [ -106.33816345799994, 35.571055619000049 ], [ -106.338207097999941, 35.570943544000045 ], [ -106.338233901999956, 35.570809523000037 ], [ -106.338250895999977, 35.570725552000056 ], [ -106.338271883999937, 35.570616614000073 ], [ -106.33827195899994, 35.570616262000044 ], [ -106.338279794999949, 35.570582948000038 ], [ -106.338305727999966, 35.57028869800007 ], [ -106.338316703999965, 35.570178949000024 ], [ -106.33831768999994, 35.570157241000061 ], [ -106.338317712, 35.570156889000032 ], [ -106.33832272099994, 35.570091787000024 ], [ -106.338324714999942, 35.570070844000043 ], [ -106.33832870699996, 35.570008968000025 ], [ -106.338342714999953, 35.569822870000053 ], [ -106.338347706999969, 35.569761971000048 ], [ -106.338353706999953, 35.569663989000048 ], [ -106.338375714999984, 35.56936987000006 ], [ -106.338383703999966, 35.569273014000032 ], [ -106.338391699999988, 35.569125093000025 ], [ -106.338419701999953, 35.568682053000032 ], [ -106.338428701999987, 35.568535067000028 ], [ -106.338432698999952, 35.568458117000034 ], [ -106.338446703999978, 35.568229039000073 ], [ -106.338451703999965, 35.568153033000044 ], [ -106.338468703, 35.567880023000043 ], [ -106.338518711999939, 35.567138924000062 ], [ -106.338524728999971, 35.567063724000036 ], [ -106.338527728999964, 35.56703471600008 ], [ -106.338545723999971, 35.566827777000071 ], [ -106.338545843999952, 35.566826845000037 ], [ -106.338551842999948, 35.566791851000062 ], [ -106.338574842999947, 35.566656855000076 ], [ -106.33859584299995, 35.566533852000077 ], [ -106.338595937999969, 35.566533365000055 ], [ -106.338596349999989, 35.566531919000056 ], [ -106.338692202999937, 35.566262330000029 ], [ -106.338728060999983, 35.56613085400005 ], [ -106.338811053999962, 35.565803882000068 ], [ -106.338835837999966, 35.565711681000039 ], [ -106.338866649999943, 35.565416480000067 ], [ -106.338846704, 35.565061434000029 ], [ -106.338820712999961, 35.564704566000046 ], [ -106.338820683999984, 35.564703844000064 ], [ -106.338818682999943, 35.564464797000028 ], [ -106.338818810999953, 35.564463056000079 ], [ -106.338858810999966, 35.564200056000061 ], [ -106.338858937999987, 35.564199364000046 ], [ -106.338859386999957, 35.564197816000046 ], [ -106.338874144999977, 35.564157478000027 ], [ -106.338886007999974, 35.564107064000041 ], [ -106.338934029999962, 35.563916973000062 ], [ -106.338934385999949, 35.563915818000055 ], [ -106.338968386999966, 35.563822818000062 ], [ -106.338968498999975, 35.563822525000035 ], [ -106.339004498999941, 35.563731524000048 ], [ -106.339004704, 35.563731038000071 ], [ -106.339178709999942, 35.563343024000062 ], [ -106.339179237999986, 35.563341981000065 ], [ -106.339585169999964, 35.562625101000037 ], [ -106.339864112999976, 35.56210820900003 ], [ -106.339864550999948, 35.56210745900006 ], [ -106.34010830699998, 35.561720850000029 ], [ -106.340177132999941, 35.56159217700008 ], [ -106.340389153999979, 35.56120813800004 ], [ -106.34045903699996, 35.561080351000044 ], [ -106.34058095499995, 35.560837513000024 ], [ -106.340949967999961, 35.560110486000042 ], [ -106.341072971999949, 35.55986848200007 ], [ -106.341073109999968, 35.559868219000066 ], [ -106.341108117999966, 35.559803203000058 ], [ -106.34115312199998, 35.559720196000058 ], [ -106.341227123999943, 35.559583193000037 ], [ -106.34136000899997, 35.559338406000052 ], [ -106.341607905999979, 35.558833614000037 ], [ -106.34172474099995, 35.558597944000041 ], [ -106.34188342899995, 35.558218692000025 ], [ -106.342020055999967, 35.557816793000029 ], [ -106.342076888999941, 35.557531634000043 ], [ -106.34217083599998, 35.557018915000072 ], [ -106.342240738999976, 35.556544582000072 ], [ -106.342248712999947, 35.55641799700004 ], [ -106.342284722999977, 35.555914865000034 ], [ -106.342313723999951, 35.55557985300004 ], [ -106.342315719999988, 35.55555490900008 ], [ -106.342328714999951, 35.555366968000044 ], [ -106.342359705999968, 35.55492812600005 ], [ -106.342368702999977, 35.554729206000047 ], [ -106.342379703999939, 35.554517186000055 ], [ -106.342425701999957, 35.553590194000037 ], [ -106.342425943999956, 35.553588365000053 ], [ -106.342426702999944, 35.553586052000071 ], [ -106.342427940999983, 35.553583883000044 ], [ -106.342429620999951, 35.553581922000035 ], [ -106.34243169299998, 35.553580228000044 ], [ -106.342434092999952, 35.553578855000069 ], [ -106.342436747999955, 35.553577843000028 ], [ -106.342439577999983, 35.553577224000037 ] ] ], [ [ [ -106.330620729999964, 35.589369729000055 ], [ -106.330557670999951, 35.589931360000037 ], [ -106.330555107999942, 35.589989740000078 ], [ -106.330551198999956, 35.590022655000041 ], [ -106.330531490999988, 35.590022668000074 ], [ -106.330539994999981, 35.589938390000043 ], [ -106.330603995, 35.589368390000061 ], [ -106.330707993999965, 35.58856239000005 ], [ -106.330733992999967, 35.588362390000043 ], [ -106.331002991999981, 35.586790389000043 ], [ -106.331214988999989, 35.585079389000043 ], [ -106.331266987999982, 35.584445389000052 ], [ -106.331273988999953, 35.584373389000064 ], [ -106.331386987999963, 35.583729389000041 ], [ -106.331468987999983, 35.583075390000033 ], [ -106.331484987999943, 35.58295238900007 ], [ -106.331533985999954, 35.582584389000033 ], [ -106.331546986999967, 35.582462389000057 ], [ -106.331568986999969, 35.582237390000046 ], [ -106.331766984999945, 35.581595390000075 ], [ -106.331818984999984, 35.581378390000054 ], [ -106.331836984999939, 35.581304390000071 ], [ -106.331949984999937, 35.58101638800008 ], [ -106.332178983999938, 35.580494388000034 ], [ -106.33237698399995, 35.580072389000065 ], [ -106.332539982999947, 35.579656388000046 ], [ -106.332770982999989, 35.579227388000049 ], [ -106.333110981999937, 35.578504387000066 ], [ -106.333200981999937, 35.578318388000071 ], [ -106.333694980999951, 35.577312387000063 ], [ -106.333974978999947, 35.576696388000073 ], [ -106.334044979999987, 35.576544388000059 ], [ -106.334347977999983, 35.575884386000041 ], [ -106.334842977999983, 35.574862387000053 ], [ -106.335024976999989, 35.574489387000028 ], [ -106.33515697699994, 35.57426338700003 ], [ -106.335294977, 35.574134385000036 ], [ -106.335441976999959, 35.574013385000057 ], [ -106.335779976999959, 35.573786386000052 ], [ -106.336431975999972, 35.573392385000034 ], [ -106.33665397599998, 35.573245385000064 ], [ -106.336760974999947, 35.573154384000077 ], [ -106.336925975999975, 35.573008385000037 ], [ -106.33710797599997, 35.572806385000035 ], [ -106.337210975999938, 35.572645385000044 ], [ -106.337319975999947, 35.572498385000074 ], [ -106.337430974999961, 35.572398384000053 ], [ -106.337477974999956, 35.57234638400007 ], [ -106.337655973999972, 35.572189384000069 ], [ -106.337667974999988, 35.572179383000048 ], [ -106.337823975, 35.572042383000053 ], [ -106.33796797399998, 35.571840384000041 ], [ -106.338099973999988, 35.571585384000059 ], [ -106.338158973999953, 35.571432384000047 ], [ -106.338271973999952, 35.571146383000041 ], [ -106.338302973999987, 35.571065384000065 ], [ -106.338346974, 35.570952384000066 ], [ -106.338373972999989, 35.570817384000065 ], [ -106.338390972999946, 35.57073338400005 ], [ -106.33841197299995, 35.570624384000041 ], [ -106.338419972999986, 35.57059038400007 ], [ -106.338445972999978, 35.570295384000076 ], [ -106.33845697299995, 35.570185384000069 ], [ -106.338457972999947, 35.570163384000068 ], [ -106.338462971999945, 35.570098384000062 ], [ -106.33846497199994, 35.570077384000058 ], [ -106.338468971999987, 35.570015384000044 ], [ -106.338482971999952, 35.569829384000059 ], [ -106.338487971999939, 35.569768383000053 ], [ -106.33849397299997, 35.569670383000073 ], [ -106.338515971999982, 35.569376383000076 ], [ -106.338523970999972, 35.569279383000037 ], [ -106.338531971999942, 35.569131383000069 ], [ -106.338559970999938, 35.568688383000051 ], [ -106.338568970999972, 35.568541383000024 ], [ -106.338572969999973, 35.568464383000048 ], [ -106.338586970999984, 35.568235383000058 ], [ -106.338591969999982, 35.568159383000079 ], [ -106.338608969999939, 35.56788638300003 ], [ -106.338658968999937, 35.567145383000025 ], [ -106.338664968999979, 35.567070383000043 ], [ -106.338667968999971, 35.56704138300006 ], [ -106.338685968999982, 35.566834383000071 ], [ -106.338691967999978, 35.566799383000046 ], [ -106.338714967999977, 35.566664383000045 ], [ -106.33873596799998, 35.566541383000072 ], [ -106.338831967999965, 35.566271383000071 ], [ -106.338867966999942, 35.566139383000063 ], [ -106.338950967999949, 35.565812383000036 ], [ -106.338975967999943, 35.565719383000044 ], [ -106.339006966999989, 35.565422383000055 ], [ -106.338986966999983, 35.565066383000044 ], [ -106.338960965999945, 35.564709383000036 ], [ -106.33895896599995, 35.564470383000071 ], [ -106.338998965999963, 35.564207383000053 ], [ -106.339013965, 35.564166383000043 ], [ -106.339025964999962, 35.564115383000058 ], [ -106.339073964999955, 35.563925383000026 ], [ -106.339107964999982, 35.563832383000033 ], [ -106.339143964999948, 35.563741383000036 ], [ -106.339317963999974, 35.563353383000049 ], [ -106.339723963999973, 35.562636382000051 ], [ -106.340002962999961, 35.562119382000049 ], [ -106.34024696299997, 35.561732382000059 ], [ -106.340315961999977, 35.561603382000044 ], [ -106.340527961999953, 35.561219382000047 ], [ -106.340597963, 35.561091382000029 ], [ -106.340719961, 35.560848382000074 ], [ -106.341088959999979, 35.560121381000044 ], [ -106.341211959999953, 35.55987938100003 ], [ -106.341246959999978, 35.559814381000024 ], [ -106.341291959999978, 35.559731381000063 ], [ -106.341365959999962, 35.559594381000068 ], [ -106.341498958999978, 35.559349381000061 ], [ -106.341746959999966, 35.558844381000029 ], [ -106.341863959999955, 35.558608380000067 ], [ -106.342022958999962, 35.55822838000006 ], [ -106.342159958999957, 35.557825380000054 ], [ -106.342216957999938, 35.557539380000037 ], [ -106.342310956999938, 35.557026380000025 ], [ -106.342380956999989, 35.55655138000003 ], [ -106.342388956999969, 35.556424380000067 ], [ -106.342424955999945, 35.555921380000029 ], [ -106.342453955999986, 35.555586380000079 ], [ -106.342455955, 35.555561381000075 ], [ -106.342468954999958, 35.555373380000049 ], [ -106.342499954999937, 35.554934381000066 ], [ -106.342508954999971, 35.554735380000068 ], [ -106.342519953999954, 35.554523380000035 ], [ -106.342565953999951, 35.553596380000045 ], [ -106.342566633999979, 35.553582655000071 ], [ -106.342568871999958, 35.55358285300008 ], [ -106.342571701999987, 35.55358347300006 ], [ -106.342574357999979, 35.553584485000044 ], [ -106.342576756999961, 35.553585858000076 ], [ -106.342578829, 35.553587551000078 ], [ -106.342580509999948, 35.553589513000077 ], [ -106.342581747999986, 35.553591682000047 ], [ -106.342582505999985, 35.553593995000028 ], [ -106.34258276199995, 35.553596380000045 ], [ -106.342582746999938, 35.553596937000066 ], [ -106.342536747999986, 35.554523950000032 ], [ -106.342525748999947, 35.55473592900006 ], [ -106.342516752999984, 35.554934888000048 ], [ -106.342516734999947, 35.554935172000057 ], [ -106.342485735999958, 35.555374163000067 ], [ -106.342472732999966, 35.555562216000055 ], [ -106.342470724999941, 35.555587314000036 ], [ -106.342441731999941, 35.555922248000059 ], [ -106.342405738999958, 35.556425155000056 ], [ -106.342397743, 35.556552086000067 ], [ -106.342397644999949, 35.556553023000049 ], [ -106.342327645999944, 35.557028023000044 ], [ -106.34232758099995, 35.557028414000058 ], [ -106.342233564999958, 35.557541502000049 ], [ -106.34217653099995, 35.557827678000024 ], [ -106.342176154999947, 35.557829057000049 ], [ -106.342039154999952, 35.558232057000055 ], [ -106.34203886499995, 35.558232824000072 ], [ -106.341879809999966, 35.558612951000043 ], [ -106.341879539, 35.558613538000031 ], [ -106.341762548999952, 35.558849518000045 ], [ -106.341514559999951, 35.559354497000072 ], [ -106.341514325, 35.559354951000046 ], [ -106.341381331999969, 35.559599939000066 ], [ -106.341307333999964, 35.559736937000025 ], [ -106.341262337999979, 35.55981993000006 ], [ -106.341227412999956, 35.559884791000059 ], [ -106.341104485999949, 35.560126647000061 ], [ -106.340735499999937, 35.560853619000056 ], [ -106.340613514999973, 35.561096595000038 ], [ -106.340613309999981, 35.561096986000052 ], [ -106.340543296999954, 35.561225009000054 ], [ -106.340331337999942, 35.561608936000027 ], [ -106.340262364999944, 35.561737883000035 ], [ -106.340261905999967, 35.561738673000036 ], [ -106.340018137999948, 35.562125307000031 ], [ -106.339739282999972, 35.562642037000046 ], [ -106.339333507, 35.56335864600004 ], [ -106.339159859999938, 35.56374586000004 ], [ -106.33912401799995, 35.56383646300003 ], [ -106.339090280999983, 35.563928744000066 ], [ -106.339042454999969, 35.56411805700003 ], [ -106.33903047299998, 35.564168976000076 ], [ -106.339030070999968, 35.564170317000048 ], [ -106.33901547399995, 35.564210218000028 ], [ -106.338975783999956, 35.564471187000038 ], [ -106.338977773999943, 35.564708934000066 ], [ -106.339003752999986, 35.565065661000062 ], [ -106.339023759999975, 35.565421754000056 ], [ -106.339023777999955, 35.565422383000055 ], [ -106.339023715999986, 35.565423550000048 ], [ -106.338992717999986, 35.565720551000027 ], [ -106.338992522999945, 35.56572176800006 ], [ -106.338992386999962, 35.565722329000039 ], [ -106.338967412999978, 35.565815236000049 ], [ -106.338884401999962, 35.566142271000047 ], [ -106.338848376999977, 35.566274370000031 ], [ -106.338848110999947, 35.566275215000076 ], [ -106.338752450999948, 35.566544263000026 ], [ -106.33873161799994, 35.56666627900006 ], [ -106.338708617999941, 35.566801283000075 ], [ -106.338702696999974, 35.566835821000041 ], [ -106.338684728999965, 35.567042448000052 ], [ -106.338681730999951, 35.567071432000034 ], [ -106.338675751999972, 35.567146173000026 ], [ -106.338625755999942, 35.567887136000024 ], [ -106.338608757999964, 35.568160101000046 ], [ -106.338603758999966, 35.568236095000032 ], [ -106.33858976199997, 35.56846506100004 ], [ -106.338585763999959, 35.568542018000073 ], [ -106.338576760999956, 35.56868908000007 ], [ -106.338548765999974, 35.569132004000039 ], [ -106.338540766999984, 35.569279989000052 ], [ -106.338540744999989, 35.569280306000053 ], [ -106.338532748999967, 35.569377264000025 ], [ -106.338510756999938, 35.569671178000078 ], [ -106.338504754999974, 35.569769185000041 ], [ -106.338499749, 35.569830263000028 ], [ -106.338485759999969, 35.570016113000065 ], [ -106.338481760999969, 35.570078107000029 ], [ -106.33848173399997, 35.57007844900005 ], [ -106.338479740999958, 35.570099374000051 ], [ -106.338474764999944, 35.570164068000054 ], [ -106.338473772999976, 35.57018589300003 ], [ -106.338473728999986, 35.57018650200007 ], [ -106.338462736999986, 35.570296423000059 ], [ -106.338436741999942, 35.570591370000045 ], [ -106.338436505999937, 35.570592873000066 ], [ -106.338428532999956, 35.570626768000068 ], [ -106.338407568999969, 35.570735572000046 ], [ -106.338390561999972, 35.570819612000037 ], [ -106.338363547999961, 35.570954684000071 ], [ -106.338362993999965, 35.570956548000026 ], [ -106.338319018999982, 35.571069488000035 ], [ -106.338287995999963, 35.571150544000034 ], [ -106.338174983999977, 35.571436577000043 ], [ -106.338116008999975, 35.57158951200006 ], [ -106.33811577299997, 35.571590082000057 ], [ -106.338115457999947, 35.57159073400004 ], [ -106.337983458999986, 35.571845734000078 ], [ -106.337982518, 35.571847275000039 ], [ -106.337838502999944, 35.572049297000035 ], [ -106.337836853999988, 35.572051213000066 ], [ -106.337836284, 35.572051740000063 ], [ -106.337680283999987, 35.572188740000058 ], [ -106.337679979999962, 35.572189 ], [ -106.337668126999972, 35.572198878000052 ], [ -106.337490944999956, 35.572355156000071 ], [ -106.337444499999947, 35.572406543000056 ], [ -106.337443853999957, 35.572407213000076 ], [ -106.337443428999961, 35.572407612000063 ], [ -106.337333517, 35.572506632000056 ], [ -106.337225629999978, 35.572652131000041 ], [ -106.337122874999977, 35.572812747000057 ], [ -106.337122535999981, 35.572813253000049 ], [ -106.337121514999978, 35.572814528000038 ], [ -106.336939514999983, 35.57301652700005 ], [ -106.336938854999971, 35.57301721400006 ], [ -106.336938327999974, 35.573017703000062 ], [ -106.336773328999982, 35.573163703000034 ], [ -106.336773099999959, 35.573163901000044 ], [ -106.336666101, 35.573254901000041 ], [ -106.336664671999984, 35.573255982000035 ], [ -106.336442561999945, 35.573403056000075 ], [ -106.336441973999968, 35.573403428000063 ], [ -106.335790313999951, 35.573797224000032 ], [ -106.33545331199997, 35.574023554000064 ], [ -106.335307282999963, 35.574143756000069 ], [ -106.335171154999955, 35.57427100600006 ], [ -106.335040387, 35.574494899000058 ], [ -106.334858602999986, 35.574867457000039 ], [ -106.334363671999938, 35.57588931600003 ], [ -106.334060718999979, 35.576549218000025 ], [ -106.333990734999986, 35.576701183000068 ], [ -106.333710741999937, 35.577317169000025 ], [ -106.333710584999949, 35.577317502000028 ], [ -106.333216596999989, 35.57832348200003 ], [ -106.333126652999965, 35.57850936400007 ], [ -106.332786678, 35.579232314000024 ], [ -106.332786372999976, 35.579232919000049 ], [ -106.332555727999988, 35.579661259000034 ], [ -106.332392996999943, 35.580076576000067 ], [ -106.332392733999939, 35.580077196000047 ], [ -106.332194756999968, 35.580499150000037 ], [ -106.331965908999962, 35.581020802000069 ], [ -106.33185328999997, 35.58130783200005 ], [ -106.331835480999985, 35.581381047000036 ], [ -106.331783486999939, 35.58159802800003 ], [ -106.331783290999965, 35.581598745000065 ], [ -106.331585634999954, 35.582239630000061 ], [ -106.331563741999958, 35.582463532000077 ], [ -106.331550737999976, 35.582585580000057 ], [ -106.331550702999948, 35.582585874000074 ], [ -106.331501704999937, 35.582953858000053 ], [ -106.331485710999971, 35.583076815000027 ], [ -106.331403715999954, 35.583730788000025 ], [ -106.331403632999979, 35.583731338000064 ], [ -106.331290707999983, 35.58437491400008 ], [ -106.331283760999952, 35.58444638800006 ], [ -106.331231765999974, 35.585080308000045 ], [ -106.331231718999959, 35.585080772000026 ], [ -106.331019720999961, 35.586791772000026 ], [ -106.331019644999969, 35.586792291000052 ], [ -106.330750684999941, 35.588364078000041 ], [ -106.330724715999963, 35.58856383400007 ], [ -106.330620729999964, 35.589369729000055 ] ] ] ] } }
]
}
